*******************************************************************************
 Revised: Feb 16, 2022     James Webb Space Telescope / (E-S L2)           -170
                           https://www.jwst.nasa.gov/index.html
                        https://www.youtube.com/watch?v=bTxLAGchWnA

 The James Webb Space Telescope ("JWST" or "Webb") is a space-based infrared 
 observatory and NASA's successor to the Hubble Space Telescope. 

 Launched by Ariane 5 booster on 2021-Dec-25 @ 12:20 UTC from the ELA-3 
 launch complex near Korou, French Guiana. 

 After launch, the telescope will deploy during its 30-day, 1.5 million km 
 journey to halo orbit at the second Earth-Sun Lagrange point (E-S L2). 
 Mission duration is nominally 5-10 years.

 GOALS
  - Search for the first galaxies or luminous objects formed after the Big Bang
  - Determine how galaxies evolved from their formation until now
  - Observe the formation of stars from the first stages to the formation of 
     planetary systems
  - Measure the physical and chemical properties of planetary systems, 
     including our own Solar System, investigating the potential for life 
     in those systems.

 TELESCOPE
  * total launch mass : ~6200 kg (observatory, fuel, launch adaptor)
  * primary mirror    : 25 m^2 
             mass     : 705 kg
         material     : beryllium coated w/48.25 grams gold (golf-ball size)
      segment mass    : 20.1 kg, 39.48 kg for entire segment assembly
      No. of segments : 18
  * focal length      : 131.4 meters
  * optical resolution: 0.1 arcseconds
  * wavelength        : 0.6 - 28.5 microns
  * size of sun shield: 21.197 m x 14.162 m
  * Sun shield layers : 1: Max temp 283K, 231 deg. F.
                        5: Max temp 221K,  -80 F 
                           Min temp 36K,  -394 F 
  * Operating temp    : < 50K (-370 deg. F)

 INSTRUMENTS
  - Near Infrared Camera (NIRCam)
  - Near Infrared Spectrograph (NIRSpec)
  - Mid Infrared Instrument (MIRI)
  - Fine Guidance Sensors/Near Infrared Imager & Slitless Spectrograph 
     (FGS/NIRISS)

 TRAJECTORY
 MCC1A (65-minute engine burn) began 2021-Dec-26 12:50 UTC, completed 01:55 UTC.
 MCC1B (09:27 engine burn) began 2021-Dec-28 00:20 UTC, completed 00:29:27 UTC.
 MCC2  (04:57 engine burn) began 2022-Jan-24 19:00 UTC, completed 19:04:57 UTC.

 Post-launch trajectory from Goddard Flight Dynamics Facility (FDF), based on
 data through ~16:00 UTC Feb 14, predicts thereafter.

 Trajectory files                             Start (TDB)         End (TDB) 
 ----------------------------------------  -----------------  -----------------
 BURN_TTF_01_2021359124800_02U.OEM.V0.3    2021-Dec-25 12:50  2021-Dec-25 20:01
 BURN_MCC_1A_2021359200000_04U.OEM.V0.1    2021-Dec-25 20:01  2021-Dec-26 15:01
 BURN_MCC_1B_2021360150000_01U.OEM.V0.1    2021-Dec-26 15:01  2021-Dec-27 14:01
 BURN_MCC_1B_2021361140000_02U.OEM.V0.1    2021-Dec-27 14:01  2021-Dec-29 00:01
 NOBURN_2021363-2022017_01U.OEM.V0.1       2021-Dec-29 00:01  2022-Jan-18 00:01
 BURN_MCC_02_2022018000000_01U.OEM.V0.1    2022-Jan-18 00:01  2022-Jan-22 00:01
 BURN_MCC_02_2022022000000_02U.OEM.V0.1    2022-Jan-22 00:01  2022-Jan-27 00:01
 28D_BURN_PREDICT_SK_2022027-2022038.V0.1  2022-Jan-27 00:01  2022-Mar-14 00:01
 2Y_SCHEDULE_2022045000000.OEM.V0.1        2022-Mar-14 00:01  2024-Feb-14 00:00
*******************************************************************************


*******************************************************************************
Ephemeris / WWW_USER Fri Feb 18 09:46:01 2022 Pasadena, USA      / Horizons
*******************************************************************************
Target body name: James Webb Space Telescope (spacecraft) (-170) {source: JWST_merged}
Center body name: Earth (399)                     {source: DE441}
Center-site name: (user defined site below)
*******************************************************************************
Start time      : A.D. 2021-Dec-25 12:49:09.1840 TDB
Stop  time      : A.D. 2024-Feb-14 00:01:09.1850 TDB
Step-size       : 1440 minutes
*******************************************************************************
Center geodetic : 139.733300,35.6833000,0.0000000 {E-lon(deg),Lat(deg),Alt(km)}
Center cylindric: 139.733300,5186.57475,3699.7061 {E-lon(deg),Dxy(km),Dz(km)}
Center pole/equ : ITRF93                          {East-longitude positive}
Center radii    : 6378.1 x 6378.1 x 6356.8 km     {Equator, meridian, pole}    
Output units    : KM-S
Output type     : GEOMETRIC cartesian states
Output format   : 2x (pos. & vel. w/uncertainties: XYZ)
EOP file        : eop.220216.p220512
EOP coverage    : DATA-BASED 1962-JAN-20 TO 2022-FEB-16. PREDICTS-> 2022-MAY-11
Reference frame : Ecliptic of J2000.0
*******************************************************************************
            JDTDB             Calendar Date (TDB),                      X,                      Y,                      Z,                     VX,                     VY,                     VZ,             X_s,             Y_s,             Z_s,            VX_s,            VY_s,            VZ_s,
********************************************************************************************************************************************************************************************************************************************************************************************************
$$SOE
2459990.034134074, A.D. 2023-Feb-14 12:49:09.1840, -7.190262870307693E+05,  1.367406434900416E+06, -1.565786380146202E+05,  1.696452364650733E-01, -2.980578060496086E-02,  8.865451680704353E-02,            n.a.,            n.a.,            n.a.,            n.a.,            n.a.,            n.a.,
2459991.034134074, A.D. 2023-Feb-15 12:49:09.1840, -7.338014559341989E+05,  1.351607514708046E+06, -1.431439620731322E+05,  1.650032980018415E-01, -3.078795652862704E-02,  8.837874523263255E-02,            n.a.,            n.a.,            n.a.,            n.a.,            n.a.,            n.a.,
2459992.034134074, A.D. 2023-Feb-16 12:49:09.1840, -7.487505444017217E+05,  1.335261379946654E+06, -1.295377378106187E+05,  1.597741125312851E-01, -3.186179914908948E-02,  8.802377552744112E-02,            n.a.,            n.a.,            n.a.,            n.a.,            n.a.,            n.a.,
2459993.034134074, A.D. 2023-Feb-17 12:49:09.1840, -7.639184717607725E+05,  1.318356002021901E+06, -1.157691983733380E+05,  1.539030311988312E-01, -3.322237892245154E-02,  8.757418698462599E-02,            n.a.,            n.a.,            n.a.,            n.a.,            n.a.,            n.a.,
2459994.034134074, A.D. 2023-Feb-18 12:49:09.1840, -7.793522401492206E+05,  1.300861162781972E+06, -1.018492337692573E+05,  1.474021020100673E-01, -3.509511067044872E-02,  8.700851100304087E-02,            n.a.,            n.a.,            n.a.,            n.a.,            n.a.,            n.a.,
2459995.034134074, A.D. 2023-Feb-19 12:49:09.1840, -7.950943207974122E+05,  1.282727033011782E+06, -8.779086827918101E+04,  1.403676267566542E-01, -3.770564154973474E-02,  8.630056284085519E-02,            n.a.,            n.a.,            n.a.,            n.a.,            n.a.,            n.a.,
2459996.034134074, A.D. 2023-Feb-20 12:49:09.1840, -8.111752196451346E+05,  1.263885778498470E+06, -7.360955322863534E+04,  1.329800987262285E-01, -4.124147589540620E-02,  8.542232453831898E-02,            n.a.,            n.a.,            n.a.,            n.a.,            n.a.,            n.a.,
2459997.034134074, A.D. 2023-Feb-21 12:49:09.1840, -8.276070142108692E+05,  1.244256488747638E+06, -5.932315950861922E+04,  1.254820400809487E-01, -4.581623963865604E-02,  8.434777872916194E-02,            n.a.,            n.a.,            n.a.,            n.a.,            n.a.,            n.a.,
2459998.034134074, A.D. 2023-Feb-22 12:49:09.1840, -8.443796990655882E+05,  1.223752483924045E+06, -4.495164299338101E+04,  1.181372299943517E-01, -5.145213823924206E-02,  8.305639355715630E-02,            n.a.,            n.a.,            n.a.,            n.a.,            n.a.,            n.a.,
2459999.034134074, A.D. 2023-Feb-23 12:49:09.1840, -8.614611356985165E+05,  1.202288999290870E+06, -3.051648574301752E+04,  1.111903371245561E-01, -5.808855699471954E-02,  8.153473767392647E-02,            n.a.,            n.a.,            n.a.,            n.a.,            n.a.,            n.a.,
2460000.034134074, A.D. 2023-Feb-24 12:49:09.1840, -8.787998981645533E+05,  1.179789446121369E+06, -1.604008748292550E+04,  1.048421228225675E-01, -6.560463877445369E-02,  7.977605175986946E-02,            n.a.,            n.a.,            n.a.,            n.a.,            n.a.,            n.a.,
2460001.034134074, A.D. 2023-Feb-25 12:49:09.1840, -8.963297086953195E+05,  1.156189297228866E+06, -1.545246094527363E+03,  9.923788252133650E-02, -7.384948252357484E-02,  7.777874518047825E-02,            n.a.,            n.a.,            n.a.,            n.a.,            n.a.,            n.a.,
2460002.034134074, A.D. 2023-Feb-26 12:49:09.1840, -9.139740403407753E+05,  1.131437616962156E+06,  1.294519754080113E+04,  9.447325842743276E-02, -8.266547319924923E-02,  7.554430524259929E-02,            n.a.,            n.a.,            n.a.,            n.a.,            n.a.,            n.a.,
2460003.034134074, A.D. 2023-Feb-27 12:49:09.1840, -9.316499597878385E+05,  1.105496973555047E+06,  2.740854851246654E+04,  9.060521900813065E-02, -9.190201074614905E-02,  7.307559208689887E-02,            n.a.,            n.a.,            n.a.,            n.a.,            n.a.,            n.a.,
2460004.034134074, A.D. 2023-Feb-28 12:49:09.1840, -9.492709732411276E+05,  1.078342489088528E+06,  4.182232245523407E+04,  8.766326392717860E-02, -1.014221274791634E-01,  7.037568433410886E-02,            n.a.,            n.a.,            n.a.,            n.a.,            n.a.,            n.a.,
2460005.034134074, A.D. 2023-Mar-01 12:49:09.1840, -9.667490002480571E+05,  1.049960660685313E+06,  5.616423543052335E+04,  8.565801066021284E-02, -1.111020021774472E-01,  6.744728123894139E-02,            n.a.,            n.a.,            n.a.,            n.a.,            n.a.,            n.a.,
